start=new Date('2023-04-22T00:00:00.000Z').valueOf();
sats=[{"PERIOD":"92.969","MEAN_MOTION_DOT":"-0.00006522","CENTER_NAME":"EARTH","LAUNCH_DATE":"2023-03-24","RCS_SIZE":"LARGE","GP_ID":"230532137","TLE_LINE1":"1 56005U 23042V   23111.91667824 -.00006522  00000-0 -11200-3 0  9992","SEMIMAJOR_AXIS":"6798.062","COUNTRY_CODE":"US","CLASSIFICATION_TYPE":"U","INCLINATION":"43.0024","ARG_OF_PERICENTER":"268.3849","ECCENTRICITY":"0.00015280","OBJECT_ID":"2023-042V","PERIAPSIS":"418.888","TLE_LINE2":"2 56005  43.0024  25.2313 0001528 268.3849 138.4485 15.48906102  1306","DECAY_DATE":null,"MEAN_ELEMENT_THEORY":"SGP4","OBJECT_NAME":"STARLINK-5801","OBJECT_TYPE":"PAYLOAD","REV_AT_EPOCH":"130","EPHEMERIS_TYPE":"0","REF_FRAME":"TEME","SITE":"AFETR","ELEMENT_SET_NO":"999","BSTAR":"-0.00011200000000","NORAD_CAT_ID":"56005","EPOCH":"2023-04-21T22:00:00.999936","RA_OF_ASC_NODE":"25.2313","MEAN_ANOMALY":"138.4485","MEAN_MOTION_DDOT":"0.0000000000000","APOAPSIS":"420.966","FILE":"3891716","TIME_SYSTEM":"UTC","MEAN_MOTION":"15.48906102"},{"MEAN_ANOMALY":"165.4919","RA_OF_ASC_NODE":"25.2204","EPOCH":"2023-04-21T22:00:00.999936","NORAD_CAT_ID":"56006","BSTAR":"-0.00041553000000","ELEMENT_SET_NO":"999","SITE":"AFETR","REF_FRAME":"TEME","MEAN_MOTION":"15.48915536","TIME_SYSTEM":"UTC","FILE":"3891716","APOAPSIS":"420.881","MEAN_MOTION_DDOT":"0.0000000000000","ECCENTRICITY":"0.00014440","INCLINATION":"43.0023","ARG_OF_PERICENTER":"246.5013","CLASSIFICATION_TYPE":"U","TLE_LINE1":"1 56006U 23042W   23111.91667824 -.00023249  00000-0 -41553-3 0  9992","GP_ID":"230530389","SEMIMAJOR_AXIS":"6798.034","COUNTRY_CODE":"US","RCS_SIZE":"LARGE","LAUNCH_DATE":"2023-03-24","CENTER_NAME":"EARTH","MEAN_MOTION_DOT":"-0.00023249","PERIOD":"92.968","EPHEMERIS_TYPE":"0","REV_AT_EPOCH":"130","OBJECT_NAME":"STARLINK-5794","OBJECT_TYPE":"PAYLOAD","MEAN_ELEMENT_THEORY":"SGP4","DECAY_DATE":null,"TLE_LINE2":"2 56006  43.0023  25.2204 0001444 246.5013 165.4919 15.48915536  1306","PERIAPSIS":"418.918","OBJECT_ID":"2023-042W"},{"REV_AT_EPOCH":"130","EPHEMERIS_TYPE":"0","MEAN_ELEMENT_THEORY":"SGP4","DECAY_DATE":null,"OBJECT_NAME":"STARLINK-5806","OBJECT_TYPE":"PAYLOAD","PERIAPSIS":"418.934","TLE_LINE2":"2 56007  43.0022  25.2238 0001456 249.2233 161.0465 15.48907145  1305","OBJECT_ID":"2023-042X","INCLINATION":"43.0022","ARG_OF_PERICENTER":"249.2233","ECCENTRICITY":"0.00014560","GP_ID":"230531636","TLE_LINE1":"1 56007U 23042X   23111.91667824 -.00007342  00000-0 -12685-3 0  9993","COUNTRY_CODE":"US","SEMIMAJOR_AXIS":"6798.059","CLASSIFICATION_TYPE":"U","RCS_SIZE":"LARGE","MEAN_MOTION_DOT":"-0.00007342","PERIOD":"92.969","CENTER_NAME":"EARTH","LAUNCH_DATE":"2023-03-24","MEAN_MOTION":"15.48907145","TIME_SYSTEM":"UTC","MEAN_MOTION_DDOT":"0.0000000000000","FILE":"3891716","APOAPSIS":"420.914","MEAN_ANOMALY":"161.0465","RA_OF_ASC_NODE":"25.2238","BSTAR":"-0.00012685000000","ELEMENT_SET_NO":"999","EPOCH":"2023-04-21T22:00:00.999936","NORAD_CAT_ID":"56007","SITE":"AFETR","REF_FRAME":"TEME"},{"OBJECT_ID":"2023-042Y","TLE_LINE2":"2 56008  43.0025  25.2185 0001296 267.0362 145.8136 15.48908455  1303","PERIAPSIS":"419.039","OBJECT_NAME":"STARLINK-5803","OBJECT_TYPE":"PAYLOAD","MEAN_ELEMENT_THEORY":"SGP4","DECAY_DATE":null,"EPHEMERIS_TYPE":"0","REV_AT_EPOCH":"130","LAUNCH_DATE":"2023-03-24","CENTER_NAME":"EARTH","MEAN_MOTION_DOT":"-0.00006031","PERIOD":"92.969","RCS_SIZE":"LARGE","CLASSIFICATION_TYPE":"U","GP_ID":"230531885","TLE_LINE1":"1 56008U 23042Y   23111.91667824 -.00006031  00000-0 -10310-3 0  9991","COUNTRY_CODE":"US","SEMIMAJOR_AXIS":"6798.055","ARG_OF_PERICENTER":"267.0362","INCLINATION":"43.0025","ECCENTRICITY":"0.00012960","APOAPSIS":"420.801","FILE":"3891716","MEAN_MOTION_DDOT":"0.0000000000000","TIME_SYSTEM":"UTC","MEAN_MOTION":"15.48908455","REF_FRAME":"TEME","SITE":"AFETR","NORAD_CAT_ID":"56008","EPOCH":"2023-04-21T22:00:00.999936","ELEMENT_SET_NO":"999","BSTAR":"-0.00010310000000","RA_OF_ASC_NODE":"25.2185","MEAN_ANOMALY":"145.8136"},{"CLASSIFICATION_TYPE":"U","GP_ID":"230532254","TLE_LINE1":"1 56009U 23042Z   23111.91667824 -.00018946  00000-0 -33732-3 0  9993","COUNTRY_CODE":"US","SEMIMAJOR_AXIS":"6798.037","INCLINATION":"43.0021","ARG_OF_PERICENTER":"257.6448","ECCENTRICITY":"0.00013810","LAUNCH_DATE":"2023-03-24","CENTER_NAME":"EARTH","PERIOD":"92.968","MEAN_MOTION_DOT":"-0.00018946","RCS_SIZE":"LARGE","OBJECT_NAME":"STARLINK-5964","OBJECT_TYPE":"PAYLOAD","MEAN_ELEMENT_THEORY":"SGP4","DECAY_DATE":null,"EPHEMERIS_TYPE":"0","REV_AT_EPOCH":"130","OBJECT_ID":"2023-042Z","TLE_LINE2":"2 56009  43.0021  25.2236 0001381 257.6448 153.4860 15.48914592  1300","PERIAPSIS":"418.963","RA_OF_ASC_NODE":"25.2236","MEAN_ANOMALY":"153.4860","REF_FRAME":"TEME","SITE":"AFETR","NORAD_CAT_ID":"56009","EPOCH":"2023-04-21T22:00:00.999936","ELEMENT_SET_NO":"999","BSTAR":"-0.00033732000000","MEAN_MOTION":"15.48914592","APOAPSIS":"420.841","FILE":"3891716","MEAN_MOTION_DDOT":"0.0000000000000","TIME_SYSTEM":"UTC"},{"FILE":"3891716","APOAPSIS":"420.855","MEAN_MOTION_DDOT":"0.0000000000000","TIME_SYSTEM":"UTC","MEAN_MOTION":"15.48906631","SITE":"AFETR","REF_FRAME":"TEME","EPOCH":"2023-04-21T22:00:00.999936","NORAD_CAT_ID":"56010","BSTAR":"-0.00012790000000","ELEMENT_SET_NO":"999","RA_OF_ASC_NODE":"25.2173","MEAN_ANOMALY":"158.8619","OBJECT_ID":"2023-042AA","TLE_LINE2":"2 56010  43.0022  25.2173 0001368 254.8466 158.8619 15.48906631  1303","PERIAPSIS":"418.995","OBJECT_TYPE":"PAYLOAD","OBJECT_NAME":"STARLINK-5968","MEAN_ELEMENT_THEORY":"SGP4","DECAY_DATE":null,"EPHEMERIS_TYPE":"0","REV_AT_EPOCH":"130","LAUNCH_DATE":"2023-03-24","CENTER_NAME":"EARTH","MEAN_MOTION_DOT":"-0.00007400","PERIOD":"92.969","RCS_SIZE":"LARGE","CLASSIFICATION_TYPE":"U","TLE_LINE1":"1 56010U 23042AA  23111.91667824 -.00007400  00000-0 -12790-3 0  9999","GP_ID":"230530890","SEMIMAJOR_AXIS":"6798.060","COUNTRY_CODE":"US","ARG_OF_PERICENTER":"254.8466","ECCENTRICITY":"0.00013680","INCLINATION":"43.0022"},{"INCLINATION":"43.0024","ARG_OF_PERICENTER":"285.0799","ECCENTRICITY":"0.00015050","CLASSIFICATION_TYPE":"U","TLE_LINE1":"1 56011U 23042AB  23111.78946931  .00022523  00000-0  17464-3 0  9998","GP_ID":"230531136","SEMIMAJOR_AXIS":"6733.121","COUNTRY_CODE":"US","RCS_SIZE":"LARGE","LAUNCH_DATE":"2023-03-24","CENTER_NAME":"EARTH","PERIOD":"91.640","MEAN_MOTION_DOT":"0.00022523","EPHEMERIS_TYPE":"0","REV_AT_EPOCH":"444","OBJECT_NAME":"STARLINK-5936","OBJECT_TYPE":"PAYLOAD","MEAN_ELEMENT_THEORY":"SGP4","DECAY_DATE":null,"TLE_LINE2":"2 56011  43.0024  24.3416 0001505 285.0799  74.9902 15.71368793  4442","PERIAPSIS":"353.973","OBJECT_ID":"2023-042AB","MEAN_ANOMALY":"74.9902","RA_OF_ASC_NODE":"24.3416","NORAD_CAT_ID":"56011","EPOCH":"2023-04-21T18:56:50.148384","ELEMENT_SET_NO":"999","BSTAR":"0.00017464000000","REF_FRAME":"TEME","SITE":"AFETR","MEAN_MOTION":"15.71368793","TIME_SYSTEM":"UTC","APOAPSIS":"355.999","FILE":"3891716","MEAN_MOTION_DDOT":"0.0000000000000"},{"OBJECT_NAME":"STARLINK-5940","OBJECT_TYPE":"PAYLOAD","MEAN_ELEMENT_THEORY":"SGP4","DECAY_DATE":null,"EPHEMERIS_TYPE":"0","REV_AT_EPOCH":"439","OBJECT_ID":"2023-042AC","TLE_LINE2":"2 56012  43.0032  26.2602 0003105 239.9627 120.0933 15.71415480  4393","PERIAPSIS":"352.762","CLASSIFICATION_TYPE":"U","TLE_LINE1":"1 56012U 23042AC  23111.47187588  .00035410  00000-0  27160-3 0  9993","GP_ID":"230499242","COUNTRY_CODE":"US","SEMIMAJOR_AXIS":"6732.988","ARG_OF_PERICENTER":"239.9627","ECCENTRICITY":"0.00031050","INCLINATION":"43.0032","LAUNCH_DATE":"2023-03-24","CENTER_NAME":"EARTH","MEAN_MOTION_DOT":"0.00035410","PERIOD":"91.637","RCS_SIZE":"LARGE","MEAN_MOTION":"15.71415480","FILE":"3891529","APOAPSIS":"356.943","MEAN_MOTION_DDOT":"0.0000000000000","TIME_SYSTEM":"UTC","RA_OF_ASC_NODE":"26.2602","MEAN_ANOMALY":"120.0933","SITE":"AFETR","REF_FRAME":"TEME","EPOCH":"2023-04-21T11:19:30.076032","NORAD_CAT_ID":"56012","BSTAR":"0.00027160000000","ELEMENT_SET_NO":"999"},{"MEAN_MOTION":"15.48914207","TIME_SYSTEM":"UTC","FILE":"3891716","APOAPSIS":"420.711","MEAN_MOTION_DDOT":"0.0000000000000","MEAN_ANOMALY":"156.5122","RA_OF_ASC_NODE":"25.2152","EPOCH":"2023-04-21T22:00:00.999936","NORAD_CAT_ID":"56013","BSTAR":"-0.00027245000000","ELEMENT_SET_NO":"999","SITE":"AFETR","REF_FRAME":"TEME","EPHEMERIS_TYPE":"0","REV_AT_EPOCH":"130","OBJECT_TYPE":"PAYLOAD","OBJECT_NAME":"STARLINK-5941","MEAN_ELEMENT_THEORY":"SGP4","DECAY_DATE":null,"TLE_LINE2":"2 56013  43.0023  25.2152 0001188 258.0508 156.5122 15.48914207  1309","PERIAPSIS":"419.096","OBJECT_ID":"2023-042AD","ARG_OF_PERICENTER":"258.0508","ECCENTRICITY":"0.00011880","INCLINATION":"43.0023","CLASSIFICATION_TYPE":"U","TLE_LINE1":"1 56013U 23042AD  23111.91667824 -.00015373  00000-0 -27245-3 0  9991","GP_ID":"230532138","COUNTRY_CODE":"US","SEMIMAJOR_AXIS":"6798.038","RCS_SIZE":"LARGE","LAUNCH_DATE":"2023-03-24","CENTER_NAME":"EARTH","PERIOD":"92.968","MEAN_MOTION_DOT":"-0.00015373"},{"MEAN_MOTION_DOT":"0.00022408","PERIOD":"91.639","LAUNCH_DATE":"2023-03-24","CENTER_NAME":"EARTH","RCS_SIZE":"LARGE","SEMIMAJOR_AXIS":"6733.070","TLE_LINE1":"1 56014U 23042AE  23111.21731075  .00022408  00000-0  17363-3 0  9990","GP_ID":"230500743","COUNTRY_CODE":"US","CLASSIFICATION_TYPE":"U","ARG_OF_PERICENTER":"244.0705","INCLINATION":"43.0018","ECCENTRICITY":"0.00018390","OBJECT_ID":"2023-042AE","PERIAPSIS":"353.697","TLE_LINE2":"2 56014  43.0018  27.7901 0001839 244.0705 115.9974 15.71386669  4353","DECAY_DATE":null,"MEAN_ELEMENT_THEORY":"SGP4","OBJECT_TYPE":"PAYLOAD","OBJECT_NAME":"STARLINK-5942","REV_AT_EPOCH":"435","EPHEMERIS_TYPE":"0","REF_FRAME":"TEME","SITE":"AFETR","ELEMENT_SET_NO":"999","BSTAR":"0.00017363000000","NORAD_CAT_ID":"56014","EPOCH":"2023-04-21T05:12:55.648800","RA_OF_ASC_NODE":"27.7901","MEAN_ANOMALY":"115.9974","MEAN_MOTION_DDOT":"0.0000000000000","APOAPSIS":"356.173","FILE":"3891529","TIME_SYSTEM":"UTC","MEAN_MOTION":"15.71386669"}];
